GLOBALSTAR M024 [-]     
1 25883U 99043A   24029.44155694 -.00000065  00000+0 -23447-5 0  9993
2 25883  52.0014  79.4904 0000994   2.7574  98.4122 11.10153630 58808
GLOBALSTAR M027 [-]     
1 25884U 99043B   24029.52614747 -.00000093  00000+0 -11290-2 0  9993
2 25884  52.0206 142.9862 0020663 254.5672 105.2839 11.04367022 85483
GLOBALSTAR M054 [-]     
1 25885U 99043C   24030.13673427 -.00000014  00000+0  14686-2 0  9997
2 25885  52.0178 353.5127 0004663  27.3074  58.4898 11.39204031 61936
GLOBALSTAR M053 [-]     
1 25886U 99043D   24029.89313222 -.00000048  00000+0  58825-3 0  9994
2 25886  51.9973 273.2186 0003019 322.5956 168.0384 11.27653444 62554
GLOBALSTAR M058 [-]     
1 25907U 99049A   24030.17299518 -.00000089  00000+0 -55438-4 0  9992
2 25907  51.9971  14.9940 0002487  25.9933 334.1026 11.93173305 92582
GLOBALSTAR M050 [-]     
1 25908U 99049B   24030.06284831  .00000051  00000+0  15731-2 0  9990
2 25908  51.9999  60.6262 0009337 108.8005 266.7695 12.07428875 92022
GLOBALSTAR M033 [-]     
1 25909U 99049C   24030.11102070  .00000052  00000+0  13781-2 0  9995
2 25909  51.9938 327.1470 0011494 318.1953  41.8016 12.20265415106921
GLOBALSTAR M055 [-]     
1 25910U 99049D   24030.18714132 -.00000069  00000+0  21854-3 0  9992
2 25910  52.0047   2.2031 0006918 162.9298 197.1787 12.29394272106510
